Name of Location,Address of Location,House Number,Street,City,State,Zip,Website,Email Address,Phone Number,Social Profiles,Name of Owner/Manager,Owner Email,Owner Phone,Mobile Groomer,Supported Zip Codes
Earth Pups,"2215 W Belmont Ave, Chicago, IL 60618",2215 W Belmont Ave,,Chicago,IL,60618,https://www.yelp.com/biz/earth-pups-chicago?adjust_creative=Mwql40_Jp9W-rGojm838NQ&utm_campaign=yelp_api_v3&utm_medium=api_v3_business_search&utm_source=Mwql40_Jp9W-rGojm838NQ,,17733487877,{},,,,,
DoggieWorks,"2338 W Nelson St, Chicago, IL 60618",2338 W Nelson St,,Chicago,IL,60618,https://www.yelp.com/biz/doggieworks-chicago?adjust_creative=Mwql40_Jp9W-rGojm838NQ&utm_campaign=yelp_api_v3&utm_medium=api_v3_business_search&utm_source=Mwql40_Jp9W-rGojm838NQ,,17736977339,{},,,,,
Tucker Pup's Pet Resort,"219 N Carpenter St, Chicago, IL 60607",219 N Carpenter St,,Chicago,IL,60607,https://www.yelp.com/biz/tucker-pups-pet-resort-chicago?adjust_creative=Mwql40_Jp9W-rGojm838NQ&utm_campaign=yelp_api_v3&utm_medium=api_v3_business_search&utm_source=Mwql40_Jp9W-rGojm838NQ,,13128298787,{},,,,,
South Loop Animal Hospital,"1640 S Michigan Ave, Chicago, IL 60616",1640 S Michigan Ave,,Chicago,IL,60616,https://www.yelp.com/biz/south-loop-animal-hospital-chicago?adjust_creative=Mwql40_Jp9W-rGojm838NQ&utm_campaign=yelp_api_v3&utm_medium=api_v3_business_search&utm_source=Mwql40_Jp9W-rGojm838NQ,,13127535551,{},,,,,
DoGone Fun!,"1717 S State St, Chicago, IL 60616",1717 S State St,,Chicago,IL,60616,https://www.yelp.com/biz/dogone-fun-chicago?adjust_creative=Mwql40_Jp9W-rGojm838NQ&utm_campaign=yelp_api_v3&utm_medium=api_v3_business_search&utm_source=Mwql40_Jp9W-rGojm838NQ,,13127659364,{},,,,,
Rockstar Pets,"1717 N Ashland Ave, Chicago, IL 60622",1717 N Ashland Ave,,Chicago,IL,60622,https://www.yelp.com/biz/rockstar-pets-chicago?adjust_creative=Mwql40_Jp9W-rGojm838NQ&utm_campaign=yelp_api_v3&utm_medium=api_v3_business_search&utm_source=Mwql40_Jp9W-rGojm838NQ,,17739207625,{},,,,,
VIP'S Pet Hotels,"2926 W Lake St, Chicago, IL 60612",2926 W Lake St,,Chicago,IL,60612,https://www.yelp.com/biz/vips-pet-hotels-chicago-3?adjust_creative=Mwql40_Jp9W-rGojm838NQ&utm_campaign=yelp_api_v3&utm_medium=api_v3_business_search&utm_source=Mwql40_Jp9W-rGojm838NQ,,13129830555,{},,,,,
Pupstars Pet Care,"2337 W Lake St, Chicago, IL 60612",2337 W Lake St,,Chicago,IL,60612,https://www.yelp.com/biz/pupstars-chicago?adjust_creative=Mwql40_Jp9W-rGojm838NQ&utm_campaign=yelp_api_v3&utm_medium=api_v3_business_search&utm_source=Mwql40_Jp9W-rGojm838NQ,,17733223160,{},,,,,
Your Pet's Wellness,"2659 N. Milwaukee Ave, Chicago, IL 60647",2659 N. Milwaukee Ave,,Chicago,IL,60647,https://www.yelp.com/biz/your-pets-wellness-chicago-6?adjust_creative=Mwql40_Jp9W-rGojm838NQ&utm_campaign=yelp_api_v3&utm_medium=api_v3_business_search&utm_source=Mwql40_Jp9W-rGojm838NQ,,17732271000,{},,,,,
PetSmart,"1101 S Canal St, Chicago, IL 60607",1101 S Canal St,,Chicago,IL,60607,https://www.yelp.com/biz/petsmart-chicago-5?adjust_creative=Mwql40_Jp9W-rGojm838NQ&utm_campaign=yelp_api_v3&utm_medium=api_v3_business_search&utm_source=Mwql40_Jp9W-rGojm838NQ,,13125880138,{},,,,,
Bark Bark Club,"5943 N Broadway Ave, Chicago, IL 60660",5943 N Broadway Ave,,Chicago,IL,60660,https://www.yelp.com/biz/bark-bark-club-chicago-2?adjust_creative=Mwql40_Jp9W-rGojm838NQ&utm_campaign=yelp_api_v3&utm_medium=api_v3_business_search&utm_source=Mwql40_Jp9W-rGojm838NQ,,17739898807,{},,,,,
Animal Care Center of Plainfield Emergency,"14411 Illinois Rte 59, Plainfield, IL 60544",14411 Illinois Rte 59,,Plainfield,IL,60544,https://www.yelp.com/biz/animal-care-center-of-plainfield-plainfield-2?adjust_creative=Mwql40_Jp9W-rGojm838NQ&utm_campaign=yelp_api_v3&utm_medium=api_v3_business_search&utm_source=Mwql40_Jp9W-rGojm838NQ,,18154368387,{},,,,,
PetSmart,"2665 N Elston Ave, Chicago, IL 60647",2665 N Elston Ave,,Chicago,IL,60647,https://www.yelp.com/biz/petsmart-chicago-6?adjust_creative=Mwql40_Jp9W-rGojm838NQ&utm_campaign=yelp_api_v3&utm_medium=api_v3_business_search&utm_source=Mwql40_Jp9W-rGojm838NQ,,17733421300,{},,,,,
K9 Tailshakers,"9204 Gulfstream Rd, Frankfort, IL 60423",9204 Gulfstream Rd,,Frankfort,IL,60423,https://www.yelp.com/biz/k9-tailshakers-frankfort-2?adjust_creative=Mwql40_Jp9W-rGojm838NQ&utm_campaign=yelp_api_v3&utm_medium=api_v3_business_search&utm_source=Mwql40_Jp9W-rGojm838NQ,,18154648245,{},,,,,
PetSmart,"2221 Oakton Ave, Evanston, IL 60202",2221 Oakton Ave,,Evanston,IL,60202,https://www.yelp.com/biz/petsmart-evanston?adjust_creative=Mwql40_Jp9W-rGojm838NQ&utm_campaign=yelp_api_v3&utm_medium=api_v3_business_search&utm_source=Mwql40_Jp9W-rGojm838NQ,,18473281814,{},,,,,
Ruffner's Luxury Pet Boarding,"1880 Dean St, Saint Charles, IL 60174",1880 Dean St,,Saint Charles,IL,60174,https://www.yelp.com/biz/ruffners-luxury-pet-boarding-saint-charles?adjust_creative=Mwql40_Jp9W-rGojm838NQ&utm_campaign=yelp_api_v3&utm_medium=api_v3_business_search&utm_source=Mwql40_Jp9W-rGojm838NQ,,16303774589,{},,,,,
Cedar Lane Kennels,"6901 Dunham Rd, Downers Grove, IL 60516",6901 Dunham Rd,,Downers Grove,IL,60516,https://www.yelp.com/biz/cedar-lane-kennels-downers-grove-2?adjust_creative=Mwql40_Jp9W-rGojm838NQ&utm_campaign=yelp_api_v3&utm_medium=api_v3_business_search&utm_source=Mwql40_Jp9W-rGojm838NQ,,16309691198,{},,,,,
Dogstyle,"24777 N Milwaukee Ave, Vernon Hills, IL 60061",24777 N Milwaukee Ave,,Vernon Hills,IL,60061,https://www.yelp.com/biz/dogstyle-vernon-hills?adjust_creative=Mwql40_Jp9W-rGojm838NQ&utm_campaign=yelp_api_v3&utm_medium=api_v3_business_search&utm_source=Mwql40_Jp9W-rGojm838NQ,,18476340722,{},,,,,
Camp Bow Wow McHenry,"3107 West Rte 120, Mchenry, IL 60051",3107 West Rte 120,,Mchenry,IL,60051,https://www.yelp.com/biz/camp-bow-wow-mchenry-mchenry-2?adjust_creative=Mwql40_Jp9W-rGojm838NQ&utm_campaign=yelp_api_v3&utm_medium=api_v3_business_search&utm_source=Mwql40_Jp9W-rGojm838NQ,,18153857297,{},,,,,
Baxter & Beasley,"313 W Colfax, Palatine, IL 60067",313 W Colfax,,Palatine,IL,60067,https://www.yelp.com/biz/baxter-and-beasley-palatine?adjust_creative=Mwql40_Jp9W-rGojm838NQ&utm_campaign=yelp_api_v3&utm_medium=api_v3_business_search&utm_source=Mwql40_Jp9W-rGojm838NQ,,18473589663,{},,,,,
PetSmart,"101 E Euclid Ave, Mount Prospect, IL 60056",101 E Euclid Ave,,Mount Prospect,IL,60056,https://www.yelp.com/biz/petsmart-mount-prospect-2?adjust_creative=Mwql40_Jp9W-rGojm838NQ&utm_campaign=yelp_api_v3&utm_medium=api_v3_business_search&utm_source=Mwql40_Jp9W-rGojm838NQ,,18478701636,{},,,,,
Kountry Pet Resort & Training Center,"12N911 US Hwy 20, Hampshire, IL 60140",12N911 US Hwy 20,,Hampshire,IL,60140,https://www.yelp.com/biz/kountry-pet-resort-and-training-center-hampshire?adjust_creative=Mwql40_Jp9W-rGojm838NQ&utm_campaign=yelp_api_v3&utm_medium=api_v3_business_search&utm_source=Mwql40_Jp9W-rGojm838NQ,,18477415434,{},,,,,
PetSmart,"976 N Route 59, Aurora, IL 60504",976 N Route 59,,Aurora,IL,60504,https://www.yelp.com/biz/petsmart-aurora-3?adjust_creative=Mwql40_Jp9W-rGojm838NQ&utm_campaign=yelp_api_v3&utm_medium=api_v3_business_search&utm_source=Mwql40_Jp9W-rGojm838NQ,,16308511310,{},,,,,
Golf Rose Pet Lodge and Grooming,"1355 N Roselle Rd, Schaumburg, IL 60195",1355 N Roselle Rd,,Schaumburg,IL,60195,https://www.yelp.com/biz/golf-rose-boarding-and-grooming-schaumburg?adjust_creative=Mwql40_Jp9W-rGojm838NQ&utm_campaign=yelp_api_v3&utm_medium=api_v3_business_search&utm_source=Mwql40_Jp9W-rGojm838NQ,,18478852122,{},,,,,
Carriage Hill Kennels,"2218 Waukegan Rd, Glenview, IL 60025",2218 Waukegan Rd,,Glenview,IL,60025,https://www.yelp.com/biz/carriage-hill-kennels-glenview?adjust_creative=Mwql40_Jp9W-rGojm838NQ&utm_campaign=yelp_api_v3&utm_medium=api_v3_business_search&utm_source=Mwql40_Jp9W-rGojm838NQ,,18477240270,{},,,,,
Country Comfort Boarding & Grooming,"3215 Cannonball Trl, Yorkville, IL 60560",3215 Cannonball Trl,,Yorkville,IL,60560,https://www.yelp.com/biz/country-comfort-boarding-and-grooming-yorkville?adjust_creative=Mwql40_Jp9W-rGojm838NQ&utm_campaign=yelp_api_v3&utm_medium=api_v3_business_search&utm_source=Mwql40_Jp9W-rGojm838NQ,,16305539432,{},,,,,
Kountry Pet Resort & Training Center,"12N911 US Hwy 20, Hampshire, IL 60140",12N911 US Hwy 20,,Hampshire,IL,60140,https://www.yelp.com/biz/kountry-pet-resort-and-training-center-hampshire?adjust_creative=Mwql40_Jp9W-rGojm838NQ&utm_campaign=yelp_api_v3&utm_medium=api_v3_business_search&utm_source=Mwql40_Jp9W-rGojm838NQ,,18477415434,{},,,,,
Ruffner's Luxury Pet Boarding,"1880 Dean St, Saint Charles, IL 60174",1880 Dean St,,Saint Charles,IL,60174,https://www.yelp.com/biz/ruffners-luxury-pet-boarding-saint-charles?adjust_creative=Mwql40_Jp9W-rGojm838NQ&utm_campaign=yelp_api_v3&utm_medium=api_v3_business_search&utm_source=Mwql40_Jp9W-rGojm838NQ,,16303774589,{},,,,,
Dogstyle,"24777 N Milwaukee Ave, Vernon Hills, IL 60061",24777 N Milwaukee Ave,,Vernon Hills,IL,60061,https://www.yelp.com/biz/dogstyle-vernon-hills?adjust_creative=Mwql40_Jp9W-rGojm838NQ&utm_campaign=yelp_api_v3&utm_medium=api_v3_business_search&utm_source=Mwql40_Jp9W-rGojm838NQ,,18476340722,{},,,,,
Baxter & Beasley,"313 W Colfax, Palatine, IL 60067",313 W Colfax,,Palatine,IL,60067,https://www.yelp.com/biz/baxter-and-beasley-palatine?adjust_creative=Mwql40_Jp9W-rGojm838NQ&utm_campaign=yelp_api_v3&utm_medium=api_v3_business_search&utm_source=Mwql40_Jp9W-rGojm838NQ,,18473589663,{},,,,,
Camp Bow Wow McHenry,"3107 West Rte 120, Mchenry, IL 60051",3107 West Rte 120,,Mchenry,IL,60051,https://www.yelp.com/biz/camp-bow-wow-mchenry-mchenry-2?adjust_creative=Mwql40_Jp9W-rGojm838NQ&utm_campaign=yelp_api_v3&utm_medium=api_v3_business_search&utm_source=Mwql40_Jp9W-rGojm838NQ,,18153857297,{},,,,,
Cedar Lane Kennels,"6901 Dunham Rd, Downers Grove, IL 60516",6901 Dunham Rd,,Downers Grove,IL,60516,https://www.yelp.com/biz/cedar-lane-kennels-downers-grove-2?adjust_creative=Mwql40_Jp9W-rGojm838NQ&utm_campaign=yelp_api_v3&utm_medium=api_v3_business_search&utm_source=Mwql40_Jp9W-rGojm838NQ,,16309691198,{},,,,,
Golf Rose Pet Lodge and Grooming,"1355 N Roselle Rd, Schaumburg, IL 60195",1355 N Roselle Rd,,Schaumburg,IL,60195,https://www.yelp.com/biz/golf-rose-boarding-and-grooming-schaumburg?adjust_creative=Mwql40_Jp9W-rGojm838NQ&utm_campaign=yelp_api_v3&utm_medium=api_v3_business_search&utm_source=Mwql40_Jp9W-rGojm838NQ,,18478852122,{},,,,,
PetSmart,"101 E Euclid Ave, Mount Prospect, IL 60056",101 E Euclid Ave,,Mount Prospect,IL,60056,https://www.yelp.com/biz/petsmart-mount-prospect-2?adjust_creative=Mwql40_Jp9W-rGojm838NQ&utm_campaign=yelp_api_v3&utm_medium=api_v3_business_search&utm_source=Mwql40_Jp9W-rGojm838NQ,,18478701636,{},,,,,
PetSmart,"976 N Route 59, Aurora, IL 60504",976 N Route 59,,Aurora,IL,60504,https://www.yelp.com/biz/petsmart-aurora-3?adjust_creative=Mwql40_Jp9W-rGojm838NQ&utm_campaign=yelp_api_v3&utm_medium=api_v3_business_search&utm_source=Mwql40_Jp9W-rGojm838NQ,,16308511310,{},,,,,
Country Comfort Boarding & Grooming,"3215 Cannonball Trl, Yorkville, IL 60560",3215 Cannonball Trl,,Yorkville,IL,60560,https://www.yelp.com/biz/country-comfort-boarding-and-grooming-yorkville?adjust_creative=Mwql40_Jp9W-rGojm838NQ&utm_campaign=yelp_api_v3&utm_medium=api_v3_business_search&utm_source=Mwql40_Jp9W-rGojm838NQ,,16305539432,{},,,,,
PetSmart,"976 N Route 59, Aurora, IL 60504",976 N Route 59,,Aurora,IL,60504,https://www.yelp.com/biz/petsmart-aurora-3?adjust_creative=Mwql40_Jp9W-rGojm838NQ&utm_campaign=yelp_api_v3&utm_medium=api_v3_business_search&utm_source=Mwql40_Jp9W-rGojm838NQ,,16308511310,{},,,,,
Animal Care Center of Plainfield Emergency,"14411 Illinois Rte 59, Plainfield, IL 60544",14411 Illinois Rte 59,,Plainfield,IL,60544,https://www.yelp.com/biz/animal-care-center-of-plainfield-plainfield-2?adjust_creative=Mwql40_Jp9W-rGojm838NQ&utm_campaign=yelp_api_v3&utm_medium=api_v3_business_search&utm_source=Mwql40_Jp9W-rGojm838NQ,,18154368387,{},,,,,
K9 Tailshakers,"9204 Gulfstream Rd, Frankfort, IL 60423",9204 Gulfstream Rd,,Frankfort,IL,60423,https://www.yelp.com/biz/k9-tailshakers-frankfort-2?adjust_creative=Mwql40_Jp9W-rGojm838NQ&utm_campaign=yelp_api_v3&utm_medium=api_v3_business_search&utm_source=Mwql40_Jp9W-rGojm838NQ,,18154648245,{},,,,,
Ruffner's Luxury Pet Boarding,"1880 Dean St, Saint Charles, IL 60174",1880 Dean St,,Saint Charles,IL,60174,https://www.yelp.com/biz/ruffners-luxury-pet-boarding-saint-charles?adjust_creative=Mwql40_Jp9W-rGojm838NQ&utm_campaign=yelp_api_v3&utm_medium=api_v3_business_search&utm_source=Mwql40_Jp9W-rGojm838NQ,,16303774589,{},,,,,
Cedar Lane Kennels,"6901 Dunham Rd, Downers Grove, IL 60516",6901 Dunham Rd,,Downers Grove,IL,60516,https://www.yelp.com/biz/cedar-lane-kennels-downers-grove-2?adjust_creative=Mwql40_Jp9W-rGojm838NQ&utm_campaign=yelp_api_v3&utm_medium=api_v3_business_search&utm_source=Mwql40_Jp9W-rGojm838NQ,,16309691198,{},,,,,
Country Comfort Boarding & Grooming,"3215 Cannonball Trl, Yorkville, IL 60560",3215 Cannonball Trl,,Yorkville,IL,60560,https://www.yelp.com/biz/country-comfort-boarding-and-grooming-yorkville?adjust_creative=Mwql40_Jp9W-rGojm838NQ&utm_campaign=yelp_api_v3&utm_medium=api_v3_business_search&utm_source=Mwql40_Jp9W-rGojm838NQ,,16305539432,{},,,,,
Wiggly Pups,"152 E 22nd St, Ste B3, New York, NY 10010",152 E 22nd St,Ste B3,New York,NY,10010,https://www.yelp.com/biz/wiggly-pups-new-york?adjust_creative=Mwql40_Jp9W-rGojm838NQ&utm_campaign=yelp_api_v3&utm_medium=api_v3_business_search&utm_source=Mwql40_Jp9W-rGojm838NQ,,12124773930,{},,,,,
New York Dog Spa & Hotel,"32 W 25th St, New York, NY 10010",32 W 25th St,,New York,NY,10010,https://www.yelp.com/biz/new-york-dog-spa-and-hotel-new-york?adjust_creative=Mwql40_Jp9W-rGojm838NQ&utm_campaign=yelp_api_v3&utm_medium=api_v3_business_search&utm_source=Mwql40_Jp9W-rGojm838NQ,,12122431199,{},,,,,
Happy Paws,"316 Lafayette St, New York, NY 10012",316 Lafayette St,,New York,NY,10012,https://www.yelp.com/biz/happy-paws-new-york?adjust_creative=Mwql40_Jp9W-rGojm838NQ&utm_campaign=yelp_api_v3&utm_medium=api_v3_business_search&utm_source=Mwql40_Jp9W-rGojm838NQ,,12124316898,{},,,,,
Puppy Loft,"237 W 26th St, New York, NY 10001",237 W 26th St,,New York,NY,10001,https://www.yelp.com/biz/puppy-loft-new-york?adjust_creative=Mwql40_Jp9W-rGojm838NQ&utm_campaign=yelp_api_v3&utm_medium=api_v3_business_search&utm_source=Mwql40_Jp9W-rGojm838NQ,,12129249131,{},,,,,
Opie's Outpost,"409 Greene Ave, Brooklyn, NY 11216",409 Greene Ave,,Brooklyn,NY,11216,https://www.yelp.com/biz/opies-outpost-brooklyn?adjust_creative=Mwql40_Jp9W-rGojm838NQ&utm_campaign=yelp_api_v3&utm_medium=api_v3_business_search&utm_source=Mwql40_Jp9W-rGojm838NQ,,13475290047,{},,,,,
Green Leaf Pet Resort of Ocean,"1602 Highway 35, Oakhurst, NJ 07755",1602 Highway 35,,Oakhurst,NJ,7755,https://www.yelp.com/biz/green-leaf-pet-resort-of-ocean-oakhurst?adjust_creative=Mwql40_Jp9W-rGojm838NQ&utm_campaign=yelp_api_v3&utm_medium=api_v3_business_search&utm_source=Mwql40_Jp9W-rGojm838NQ,,17322720800,{},,,,,
Pooches Sport & Spa,"47-31 Center Blvd, Long Island City, NY 11109",47-31 Center Blvd,,Long Island City,NY,11109,https://www.yelp.com/biz/pooches-sport-and-spa-long-island-city-5?adjust_creative=Mwql40_Jp9W-rGojm838NQ&utm_campaign=yelp_api_v3&utm_medium=api_v3_business_search&utm_source=Mwql40_Jp9W-rGojm838NQ,,17183910800,{},,,,,
Playground Pups,"664 Amsterdam Ave, New York, NY 10025",664 Amsterdam Ave,,New York,NY,10025,https://www.yelp.com/biz/playground-pups-new-york?adjust_creative=Mwql40_Jp9W-rGojm838NQ&utm_campaign=yelp_api_v3&utm_medium=api_v3_business_search&utm_source=Mwql40_Jp9W-rGojm838NQ,,12123625221,{},,,,,
LIC Doghouse,"45-44 Vernon Blvd, Long Island City, NY 11101",45-44 Vernon Blvd,,Long Island City,NY,11101,https://www.yelp.com/biz/lic-doghouse-long-island-city?adjust_creative=Mwql40_Jp9W-rGojm838NQ&utm_campaign=yelp_api_v3&utm_medium=api_v3_business_search&utm_source=Mwql40_Jp9W-rGojm838NQ,,17183893647,{},,,,,
Camp Canine,"46 W 73rd St, New York, NY 10023",46 W 73rd St,,New York,NY,10023,https://www.yelp.com/biz/camp-canine-new-york?adjust_creative=Mwql40_Jp9W-rGojm838NQ&utm_campaign=yelp_api_v3&utm_medium=api_v3_business_search&utm_source=Mwql40_Jp9W-rGojm838NQ,,12127873647,{},,,,,
New York Dog Nanny,"Astoria, NY 11105",,,Astoria,NY,11105,https://www.yelp.com/biz/new-york-dog-nanny-astoria-3?adjust_creative=Mwql40_Jp9W-rGojm838NQ&utm_campaign=yelp_api_v3&utm_medium=api_v3_business_search&utm_source=Mwql40_Jp9W-rGojm838NQ,,16462067601,{},,,,,
The Kearny Dog Walker,"Kearny, NJ 07029",,,Kearny,NJ,7029,https://www.yelp.com/biz/the-kearny-dog-walker-kearny?adjust_creative=Mwql40_Jp9W-rGojm838NQ&utm_campaign=yelp_api_v3&utm_medium=api_v3_business_search&utm_source=Mwql40_Jp9W-rGojm838NQ,,17325005333,{},,,,,
Coco And Toto,"730 11th Ave, New York, NY 10019",730 11th Ave,,New York,NY,10019,https://www.yelp.com/biz/coco-and-toto-new-york-2?adjust_creative=Mwql40_Jp9W-rGojm838NQ&utm_campaign=yelp_api_v3&utm_medium=api_v3_business_search&utm_source=Mwql40_Jp9W-rGojm838NQ,,12129565822,{},,,,,
K9dergarten,"173 Newark Ave, Jersey City, NJ 07302",173 Newark Ave,,Jersey City,NJ,7302,https://www.yelp.com/biz/k9dergarten-jersey-city?adjust_creative=Mwql40_Jp9W-rGojm838NQ&utm_campaign=yelp_api_v3&utm_medium=api_v3_business_search&utm_source=Mwql40_Jp9W-rGojm838NQ,,12014358700,{},,,,,
Green Leaf Pet Resort,"23 Burnt Tavern Rd, Millstone, NJ 08510",23 Burnt Tavern Rd,,Millstone,NJ,8510,https://www.yelp.com/biz/green-leaf-pet-resort-millstone?adjust_creative=Mwql40_Jp9W-rGojm838NQ&utm_campaign=yelp_api_v3&utm_medium=api_v3_business_search&utm_source=Mwql40_Jp9W-rGojm838NQ,,16092591500,{},,,,,
LAK9s,"8922 Ellis Ave, Los Angeles, CA 90034",8922 Ellis Ave,,Los Angeles,CA,90034,https://www.yelp.com/biz/lak9s-los-angeles?adjust_creative=Mwql40_Jp9W-rGojm838NQ&utm_campaign=yelp_api_v3&utm_medium=api_v3_business_search&utm_source=Mwql40_Jp9W-rGojm838NQ,,14242721269,{},,,,,
Wags 2 Whiskers,"3729 Robertson Blvd, Culver City, CA 90232",3729 Robertson Blvd,,Culver City,CA,90232,https://www.yelp.com/biz/wags-2-whiskers-culver-city?adjust_creative=Mwql40_Jp9W-rGojm838NQ&utm_campaign=yelp_api_v3&utm_medium=api_v3_business_search&utm_source=Mwql40_Jp9W-rGojm838NQ,,13102029247,{},,,,,
The Wags Club,"11860 Mississippi Ave, Los Angeles, CA 90025",11860 Mississippi Ave,,Los Angeles,CA,90025,https://www.yelp.com/biz/the-wags-club-los-angeles?adjust_creative=Mwql40_Jp9W-rGojm838NQ&utm_campaign=yelp_api_v3&utm_medium=api_v3_business_search&utm_source=Mwql40_Jp9W-rGojm838NQ,,13104733333,{},,,,,
South Park Doggie - Playland DTLA,"1320 S Grand Ave, Los Angeles, CA 90015",1320 S Grand Ave,,Los Angeles,CA,90015,https://www.yelp.com/biz/south-park-doggie-playland-dtla-los-angeles?adjust_creative=Mwql40_Jp9W-rGojm838NQ&utm_campaign=yelp_api_v3&utm_medium=api_v3_business_search&utm_source=Mwql40_Jp9W-rGojm838NQ,,12137473649,{},,,,,
South Park Doggie - Waterland LAX,"8613 Aviation Blvd, Inglewood, CA 90301",8613 Aviation Blvd,,Inglewood,CA,90301,https://www.yelp.com/biz/south-park-doggie-waterland-lax-inglewood-3?adjust_creative=Mwql40_Jp9W-rGojm838NQ&utm_campaign=yelp_api_v3&utm_medium=api_v3_business_search&utm_source=Mwql40_Jp9W-rGojm838NQ,,13104173649,{},,,,,
Karma Dog Training,"Los Angeles, CA 90048",,,Los Angeles,CA,90048,https://www.yelp.com/biz/karma-dog-training-los-angeles?adjust_creative=Mwql40_Jp9W-rGojm838NQ&utm_campaign=yelp_api_v3&utm_medium=api_v3_business_search&utm_source=Mwql40_Jp9W-rGojm838NQ,,13235339394,{},,,,,
Citydog! Club,"1815 Pontius Ave, Los Angeles, CA 90025",1815 Pontius Ave,,Los Angeles,CA,90025,https://www.yelp.com/biz/citydog-club-los-angeles-3?adjust_creative=Mwql40_Jp9W-rGojm838NQ&utm_campaign=yelp_api_v3&utm_medium=api_v3_business_search&utm_source=Mwql40_Jp9W-rGojm838NQ,,13104770364,{},,,,,
Paradise Ranch Pet Resort,"10268 La Tuna Canyon Rd, Sun Valley, CA 91352",10268 La Tuna Canyon Rd,,Sun Valley,CA,91352,https://www.yelp.com/biz/paradise-ranch-pet-resort-sun-valley?adjust_creative=Mwql40_Jp9W-rGojm838NQ&utm_campaign=yelp_api_v3&utm_medium=api_v3_business_search&utm_source=Mwql40_Jp9W-rGojm838NQ,,18183949557,{},,,,,
Puparazzi LA,"1933 Pontius Ave, Los Angeles, CA 90025",1933 Pontius Ave,,Los Angeles,CA,90025,https://www.yelp.com/biz/puparazzi-la-los-angeles-3?adjust_creative=Mwql40_Jp9W-rGojm838NQ&utm_campaign=yelp_api_v3&utm_medium=api_v3_business_search&utm_source=Mwql40_Jp9W-rGojm838NQ,,14243253151,{},,,,,
South Park Doggie - Adventureland South Bay,"945 W 190th St, Gardena, CA 90248",945 W 190th St,,Gardena,CA,90248,https://www.yelp.com/biz/south-park-doggie-adventureland-south-bay-gardena-2?adjust_creative=Mwql40_Jp9W-rGojm838NQ&utm_campaign=yelp_api_v3&utm_medium=api_v3_business_search&utm_source=Mwql40_Jp9W-rGojm838NQ,,13107566110,{},,,,,
Doggie Goddess Pet Services,"2347 Pontius Ave, Los Angeles, CA 90064",2347 Pontius Ave,,Los Angeles,CA,90064,https://www.yelp.com/biz/doggie-goddess-pet-services-los-angeles?adjust_creative=Mwql40_Jp9W-rGojm838NQ&utm_campaign=yelp_api_v3&utm_medium=api_v3_business_search&utm_source=Mwql40_Jp9W-rGojm838NQ,,14242930425,{},,,,,
K9 Loft,"495 S Arroyo Pkwy, Pasadena, CA 91105",495 S Arroyo Pkwy,,Pasadena,CA,91105,https://www.yelp.com/biz/k9-loft-pasadena?adjust_creative=Mwql40_Jp9W-rGojm838NQ&utm_campaign=yelp_api_v3&utm_medium=api_v3_business_search&utm_source=Mwql40_Jp9W-rGojm838NQ,,16267956060,{},,,,,
poshpetcare,"705 N Harper Ave, Los Angeles, CA 90046",705 N Harper Ave,,Los Angeles,CA,90046,https://www.yelp.com/biz/poshpetcare-los-angeles-5?adjust_creative=Mwql40_Jp9W-rGojm838NQ&utm_campaign=yelp_api_v3&utm_medium=api_v3_business_search&utm_source=Mwql40_Jp9W-rGojm838NQ,,13236557674,{},,,,,
Pet Rush Inn,"115 W Linden Ave, Burbank, CA 91502",115 W Linden Ave,,Burbank,CA,91502,https://www.yelp.com/biz/pet-rush-inn-burbank-4?adjust_creative=Mwql40_Jp9W-rGojm838NQ&utm_campaign=yelp_api_v3&utm_medium=api_v3_business_search&utm_source=Mwql40_Jp9W-rGojm838NQ,,18184714298,{},,,,,
Blue Dog Ranch,"110 W Linden Ave, Burbank, CA 91502",110 W Linden Ave,,Burbank,CA,91502,https://www.yelp.com/biz/blue-dog-ranch-burbank?adjust_creative=Mwql40_Jp9W-rGojm838NQ&utm_campaign=yelp_api_v3&utm_medium=api_v3_business_search&utm_source=Mwql40_Jp9W-rGojm838NQ,,18187290550,{},,,,,
K9s Only,"18603 Topham St, Tarzana, CA 91335",18603 Topham St,,Tarzana,CA,91335,https://www.yelp.com/biz/k9s-only-tarzana-2?adjust_creative=Mwql40_Jp9W-rGojm838NQ&utm_campaign=yelp_api_v3&utm_medium=api_v3_business_search&utm_source=Mwql40_Jp9W-rGojm838NQ,,18189214030,{},,,,,
Andy's Pet Grooming & Daycare,"13236 Riverside Dr, Sherman Oaks, CA 91423",13236 Riverside Dr,,Sherman Oaks,CA,91423,https://www.yelp.com/biz/andys-pet-grooming-and-daycare-sherman-oaks-3?adjust_creative=Mwql40_Jp9W-rGojm838NQ&utm_campaign=yelp_api_v3&utm_medium=api_v3_business_search&utm_source=Mwql40_Jp9W-rGojm838NQ,,18186163466,{},,,,,
Dog Resort - North Hollywood,"11911 Vose Street, Los Angeles, CA 91605",11911 Vose Street,,Los Angeles,CA,91605,https://www.yelp.com/biz/dog-resort-north-hollywood-los-angeles?adjust_creative=Mwql40_Jp9W-rGojm838NQ&utm_campaign=yelp_api_v3&utm_medium=api_v3_business_search&utm_source=Mwql40_Jp9W-rGojm838NQ,,18182555551,{},,,,,
Go Dog LA,"1728 Maple Ave, Los Angeles, CA 90015",1728 Maple Ave,,Los Angeles,CA,90015,https://www.yelp.com/biz/go-dog-la-los-angeles?adjust_creative=Mwql40_Jp9W-rGojm838NQ&utm_campaign=yelp_api_v3&utm_medium=api_v3_business_search&utm_source=Mwql40_Jp9W-rGojm838NQ,,12133649617,{},,,,,
Four Paws Day Care,"13125 Ventura Blvd, Studio City, CA 91604",13125 Ventura Blvd,,Studio City,CA,91604,https://www.yelp.com/biz/four-paws-day-care-studio-city?adjust_creative=Mwql40_Jp9W-rGojm838NQ&utm_campaign=yelp_api_v3&utm_medium=api_v3_business_search&utm_source=Mwql40_Jp9W-rGojm838NQ,,18189865700,{},,,,,
The Hounds Club,"520 W Windsor Rd, Glendale, CA 91204",520 W Windsor Rd,,Glendale,CA,91204,https://www.yelp.com/biz/the-hounds-club-glendale?adjust_creative=Mwql40_Jp9W-rGojm838NQ&utm_campaign=yelp_api_v3&utm_medium=api_v3_business_search&utm_source=Mwql40_Jp9W-rGojm838NQ,,13239547272,{},,,,,
Canyon View Ranch,"1558 Will Geer Rd, Topanga, CA 90290",1558 Will Geer Rd,,Topanga,CA,90290,https://www.yelp.com/biz/canyon-view-ranch-topanga?adjust_creative=Mwql40_Jp9W-rGojm838NQ&utm_campaign=yelp_api_v3&utm_medium=api_v3_business_search&utm_source=Mwql40_Jp9W-rGojm838NQ,,13104557897,{},,,,,
Ruff House Pet Resort,"3035 Chicago Ave, Riverside, CA 92507",3035 Chicago Ave,,Riverside,CA,92507,https://www.yelp.com/biz/ruff-house-pet-resort-riverside-5?adjust_creative=Mwql40_Jp9W-rGojm838NQ&utm_campaign=yelp_api_v3&utm_medium=api_v3_business_search&utm_source=Mwql40_Jp9W-rGojm838NQ,,19515881200,{},,,,,
Anaheim Hills Pet Clinic,"5799 E La Palma Ave, Anaheim, CA 92807",5799 E La Palma Ave,,Anaheim,CA,92807,https://www.yelp.com/biz/anaheim-hills-pet-clinic-anaheim-3?adjust_creative=Mwql40_Jp9W-rGojm838NQ&utm_campaign=yelp_api_v3&utm_medium=api_v3_business_search&utm_source=Mwql40_Jp9W-rGojm838NQ,,17147792101,{},,,,,
Bow Wow Bungalow,"2711 N California St, Burbank, CA 91504",2711 N California St,,Burbank,CA,91504,https://www.yelp.com/biz/bow-wow-bungalow-burbank?adjust_creative=Mwql40_Jp9W-rGojm838NQ&utm_campaign=yelp_api_v3&utm_medium=api_v3_business_search&utm_source=Mwql40_Jp9W-rGojm838NQ,,18185653555,{},,,,,
Elite Pet Care,"4500 Woodman Ave, Sherman Oaks, CA 91423",4500 Woodman Ave,,Sherman Oaks,CA,91423,https://www.yelp.com/biz/elite-pet-care-sherman-oaks-2?adjust_creative=Mwql40_Jp9W-rGojm838NQ&utm_campaign=yelp_api_v3&utm_medium=api_v3_business_search&utm_source=Mwql40_Jp9W-rGojm838NQ,,18186535483,{},,,,,
VCA PetPoint Medical Center and Resort,"2505 Da Vinci, Irvine, CA 92614",2505 Da Vinci,,Irvine,CA,92614,https://www.yelp.com/biz/vca-petpoint-medical-center-and-resort-irvine?adjust_creative=Mwql40_Jp9W-rGojm838NQ&utm_campaign=yelp_api_v3&utm_medium=api_v3_business_search&utm_source=Mwql40_Jp9W-rGojm838NQ,,19495225700,{},,,,,
Happy Heart Pet Care,"1730 Camino Palmero St, Los Angeles, CA 90046",1730 Camino Palmero St,,Los Angeles,CA,90046,https://www.yelp.com/biz/happy-heart-pet-care-los-angeles-3?adjust_creative=Mwql40_Jp9W-rGojm838NQ&utm_campaign=yelp_api_v3&utm_medium=api_v3_business_search&utm_source=Mwql40_Jp9W-rGojm838NQ,,13238070151,{},,,,,
Doggie Daycare & More,"1770 Newport Blvd, Costa Mesa, CA 92627",1770 Newport Blvd,,Costa Mesa,CA,92627,https://www.yelp.com/biz/doggie-daycare-and-more-costa-mesa?adjust_creative=Mwql40_Jp9W-rGojm838NQ&utm_campaign=yelp_api_v3&utm_medium=api_v3_business_search&utm_source=Mwql40_Jp9W-rGojm838NQ,,19497229663,{},,,,,
Pet Lovers Resort,"18416 Ventura Blvd, Tarzana, CA 91356",18416 Ventura Blvd,,Tarzana,CA,91356,https://www.yelp.com/biz/pet-lovers-resort-tarzana-2?adjust_creative=Mwql40_Jp9W-rGojm838NQ&utm_campaign=yelp_api_v3&utm_medium=api_v3_business_search&utm_source=Mwql40_Jp9W-rGojm838NQ,,18185785664,{},,,,,
Obedience Please Dog Training,"721 Fair Oaks Ave, South Pasadena, CA 91030",721 Fair Oaks Ave,,South Pasadena,CA,91030,https://www.yelp.com/biz/obedience-please-dog-training-south-pasadena-5?adjust_creative=Mwql40_Jp9W-rGojm838NQ&utm_campaign=yelp_api_v3&utm_medium=api_v3_business_search&utm_source=Mwql40_Jp9W-rGojm838NQ,,16267999614,{},,,,,
Plaza Del Amo Animal Hospital & Pet Keeper,"3430 Fujita St, Torrance, CA 90505",3430 Fujita St,,Torrance,CA,90505,https://www.yelp.com/biz/plaza-del-amo-animal-hospital-and-pet-keeper-torrance-2?adjust_creative=Mwql40_Jp9W-rGojm838NQ&utm_campaign=yelp_api_v3&utm_medium=api_v3_business_search&utm_source=Mwql40_Jp9W-rGojm838NQ,,13105305511,{},,,,,
Fancy Tails,"6 Pier Ave, Hermosa Beach, CA 90254",6 Pier Ave,,Hermosa Beach,CA,90254,https://www.yelp.com/biz/fancy-tails-hermosa-beach?adjust_creative=Mwql40_Jp9W-rGojm838NQ&utm_campaign=yelp_api_v3&utm_medium=api_v3_business_search&utm_source=Mwql40_Jp9W-rGojm838NQ,,13109374408,{},,,,,
Sit Means Sit San Gabriel Valley,"348 W Foothill Blvd, Glendora, CA 91741",348 W Foothill Blvd,,Glendora,CA,91741,https://www.yelp.com/biz/sit-means-sit-san-gabriel-valley-glendora?adjust_creative=Mwql40_Jp9W-rGojm838NQ&utm_campaign=yelp_api_v3&utm_medium=api_v3_business_search&utm_source=Mwql40_Jp9W-rGojm838NQ,,16268032275,{},,,,,
Rover Kennels,"2116 Main St, Ste B, Santa Monica, CA 90405",2116 Main St,Ste B,Santa Monica,CA,90405,https://www.yelp.com/biz/rover-kennels-santa-monica?adjust_creative=Mwql40_Jp9W-rGojm838NQ&utm_campaign=yelp_api_v3&utm_medium=api_v3_business_search&utm_source=Mwql40_Jp9W-rGojm838NQ,,13104500705,{},,,,,
Pawfection,"404 N Lake Ave, Pasadena, CA 91101",404 N Lake Ave,,Pasadena,CA,91101,https://www.yelp.com/biz/pawfection-pasadena-2?adjust_creative=Mwql40_Jp9W-rGojm838NQ&utm_campaign=yelp_api_v3&utm_medium=api_v3_business_search&utm_source=Mwql40_Jp9W-rGojm838NQ,,16265851455,{},,,,,
Topanga Pet Resort,"1776 Old Topanga Canyon Rd, Topanga, CA 90290",1776 Old Topanga Canyon Rd,,Topanga,CA,90290,https://www.yelp.com/biz/topanga-pet-resort-topanga?adjust_creative=Mwql40_Jp9W-rGojm838NQ&utm_campaign=yelp_api_v3&utm_medium=api_v3_business_search&utm_source=Mwql40_Jp9W-rGojm838NQ,,13104559663,{},,,,,
Paw Sweet Paw,"16811 Noyes Ave, Irvine, CA 92606",16811 Noyes Ave,,Irvine,CA,92606,https://www.yelp.com/biz/paw-sweet-paw-irvine-4?adjust_creative=Mwql40_Jp9W-rGojm838NQ&utm_campaign=yelp_api_v3&utm_medium=api_v3_business_search&utm_source=Mwql40_Jp9W-rGojm838NQ,,19493331465,{},,,,,
VCA Adler Animal Hospital and Pet Resort,"16911 Roscoe Blvd, North Hills, CA 91343",16911 Roscoe Blvd,,North Hills,CA,91343,https://www.yelp.com/biz/vca-adler-animal-hospital-and-pet-resort-north-hills?adjust_creative=Mwql40_Jp9W-rGojm838NQ&utm_campaign=yelp_api_v3&utm_medium=api_v3_business_search&utm_source=Mwql40_Jp9W-rGojm838NQ,,18188936366,{},,,,,
Beach City Dog Camp,"17970 Magnolia St, Fountain Valley, CA 92708",17970 Magnolia St,,Fountain Valley,CA,92708,https://www.yelp.com/biz/beach-city-dog-camp-fountain-valley?adjust_creative=Mwql40_Jp9W-rGojm838NQ&utm_campaign=yelp_api_v3&utm_medium=api_v3_business_search&utm_source=Mwql40_Jp9W-rGojm838NQ,,17149622232,{},,,,,
Chino Hills Animal Hospital & Pet Resort,"3415 Chino Ave, Chino, CA 91710",3415 Chino Ave,,Chino,CA,91710,https://www.yelp.com/biz/chino-hills-animal-hospital-and-pet-resort-chino?adjust_creative=Mwql40_Jp9W-rGojm838NQ&utm_campaign=yelp_api_v3&utm_medium=api_v3_business_search&utm_source=Mwql40_Jp9W-rGojm838NQ,,19095911805,{},,,,,
Rusty's Discount Pet Center,"11672 Ventura Blvd, Studio City, CA 91604",11672 Ventura Blvd,,Studio City,CA,91604,https://www.yelp.com/biz/rustys-discount-pet-center-studio-city?adjust_creative=Mwql40_Jp9W-rGojm838NQ&utm_campaign=yelp_api_v3&utm_medium=api_v3_business_search&utm_source=Mwql40_Jp9W-rGojm838NQ,,18187699085,{},,,,,
Camp Bow Wow Anaheim,"1431 N Daly St, Anaheim, CA 92806",1431 N Daly St,,Anaheim,CA,92806,https://www.yelp.com/biz/camp-bow-wow-anaheim-anaheim?adjust_creative=Mwql40_Jp9W-rGojm838NQ&utm_campaign=yelp_api_v3&utm_medium=api_v3_business_search&utm_source=Mwql40_Jp9W-rGojm838NQ,,17145332267,{},,,,,
Claws N Paws Day Spa,"18848 Brookhurst St, Fountain Valley, CA 92708",18848 Brookhurst St,,Fountain Valley,CA,92708,https://www.yelp.com/biz/claws-n-paws-day-spa-fountain-valley?adjust_creative=Mwql40_Jp9W-rGojm838NQ&utm_campaign=yelp_api_v3&utm_medium=api_v3_business_search&utm_source=Mwql40_Jp9W-rGojm838NQ,,17149621005,{},,,,,
DogOn Fun,"642 E Edna Pl, Covina, CA 91723",642 E Edna Pl,,Covina,CA,91723,https://www.yelp.com/biz/dogon-fun-covina?adjust_creative=Mwql40_Jp9W-rGojm838NQ&utm_campaign=yelp_api_v3&utm_medium=api_v3_business_search&utm_source=Mwql40_Jp9W-rGojm838NQ,,16263391354,{},,,,,
Bouquet Canyon Kennels,"29973 Bouquet Canyon Rd, Santa Clarita, CA 91390",29973 Bouquet Canyon Rd,,Santa Clarita,CA,91390,https://www.yelp.com/biz/bouquet-canyon-kennels-santa-clarita-2?adjust_creative=Mwql40_Jp9W-rGojm838NQ&utm_campaign=yelp_api_v3&utm_medium=api_v3_business_search&utm_source=Mwql40_Jp9W-rGojm838NQ,,16612975484,{},,,,,
Hydrant Pet Hotel,"776 W 17th St, Costa Mesa, CA 92627",776 W 17th St,,Costa Mesa,CA,92627,https://www.yelp.com/biz/hydrant-pet-hotel-costa-mesa?adjust_creative=Mwql40_Jp9W-rGojm838NQ&utm_campaign=yelp_api_v3&utm_medium=api_v3_business_search&utm_source=Mwql40_Jp9W-rGojm838NQ,,19492802200,{},,,,,
Barking Lodge Pet Resorts,"1221 Burt Pl, Fullerton, CA 92831",1221 Burt Pl,,Fullerton,CA,92831,https://www.yelp.com/biz/barking-lodge-pet-resorts-fullerton-2?adjust_creative=Mwql40_Jp9W-rGojm838NQ&utm_campaign=yelp_api_v3&utm_medium=api_v3_business_search&utm_source=Mwql40_Jp9W-rGojm838NQ,,17142781086,{},,,,,
Chino's Caring Kennel,"3890 Walnut Ave, Chino, CA 91710",3890 Walnut Ave,,Chino,CA,91710,https://www.yelp.com/biz/chinos-caring-kennel-chino?adjust_creative=Mwql40_Jp9W-rGojm838NQ&utm_campaign=yelp_api_v3&utm_medium=api_v3_business_search&utm_source=Mwql40_Jp9W-rGojm838NQ,,19096272212,{},,,,,
VCA Laguna Niguel Animal Hospital,"28892 Crown Valley Pkwy, Laguna Niguel, CA 92677",28892 Crown Valley Pkwy,,Laguna Niguel,CA,92677,https://www.yelp.com/biz/vca-laguna-niguel-animal-hospital-laguna-niguel?adjust_creative=Mwql40_Jp9W-rGojm838NQ&utm_campaign=yelp_api_v3&utm_medium=api_v3_business_search&utm_source=Mwql40_Jp9W-rGojm838NQ,,19494951123,{},,,,,
Central Bark,"838 Poplar Pl S, Seattle, WA 98144",838 Poplar Pl S,,Seattle,WA,98144,https://www.yelp.com/biz/central-bark-seattle?adjust_creative=Mwql40_Jp9W-rGojm838NQ&utm_campaign=yelp_api_v3&utm_medium=api_v3_business_search&utm_source=Mwql40_Jp9W-rGojm838NQ,,12063253525,{},,,,,
Bone-a-Fide Dog Ranch,"7928 184th St SE, Snohomish, WA 98291",7928 184th St SE,,Snohomish,WA,98291,https://www.yelp.com/biz/bone-a-fide-dog-ranch-snohomish?adjust_creative=Mwql40_Jp9W-rGojm838NQ&utm_campaign=yelp_api_v3&utm_medium=api_v3_business_search&utm_source=Mwql40_Jp9W-rGojm838NQ,,12065019247,{},,,,,
Academy Of Canine Behavior,"4705 240th St SE, Bothell, WA 98021",4705 240th St SE,,Bothell,WA,98021,https://www.yelp.com/biz/academy-of-canine-behavior-bothell?adjust_creative=Mwql40_Jp9W-rGojm838NQ&utm_campaign=yelp_api_v3&utm_medium=api_v3_business_search&utm_source=Mwql40_Jp9W-rGojm838NQ,,14254869567,{},,,,,
Paradise Pet Lodge,"10324 Paradise Lake Rd, Woodinville, WA 98077",10324 Paradise Lake Rd,,Woodinville,WA,98077,https://www.yelp.com/biz/paradise-pet-lodge-woodinville?adjust_creative=Mwql40_Jp9W-rGojm838NQ&utm_campaign=yelp_api_v3&utm_medium=api_v3_business_search&utm_source=Mwql40_Jp9W-rGojm838NQ,,14254833647,{},,,,,
Doggy Haven Resort,"5303 W Interurban Blvd, Bothell, WA 98012",5303 W Interurban Blvd,,Bothell,WA,98012,https://www.yelp.com/biz/doggy-haven-resort-bothell?adjust_creative=Mwql40_Jp9W-rGojm838NQ&utm_campaign=yelp_api_v3&utm_medium=api_v3_business_search&utm_source=Mwql40_Jp9W-rGojm838NQ,,14254824472,{},,,,,
Cascade Kennels,"20005 178th Ave NE, Woodinville, WA 98072",20005 178th Ave NE,,Woodinville,WA,98072,https://www.yelp.com/biz/cascade-kennels-woodinville?adjust_creative=Mwql40_Jp9W-rGojm838NQ&utm_campaign=yelp_api_v3&utm_medium=api_v3_business_search&utm_source=Mwql40_Jp9W-rGojm838NQ,,14254839333,{},,,,,
Juanita Hills Animal Hospital,"13603 100th Ave NE, Kirkland, WA 98034",13603 100th Ave NE,,Kirkland,WA,98034,https://www.yelp.com/biz/juanita-hills-animal-hospital-kirkland?adjust_creative=Mwql40_Jp9W-rGojm838NQ&utm_campaign=yelp_api_v3&utm_medium=api_v3_business_search&utm_source=Mwql40_Jp9W-rGojm838NQ,,14252027430,{},,,,,
Bowwow Fun Towne,"18021 61st Ave NE, Kenmore, WA 98028",18021 61st Ave NE,,Kenmore,WA,98028,https://www.yelp.com/biz/bowwow-fun-towne-kenmore?adjust_creative=Mwql40_Jp9W-rGojm838NQ&utm_campaign=yelp_api_v3&utm_medium=api_v3_business_search&utm_source=Mwql40_Jp9W-rGojm838NQ,,14254816825,{},,,,,
PetSmart,"17585 Southcenter Pkwy, Tukwila, WA 98188",17585 Southcenter Pkwy,,Tukwila,WA,98188,https://www.yelp.com/biz/petsmart-tukwila?adjust_creative=Mwql40_Jp9W-rGojm838NQ&utm_campaign=yelp_api_v3&utm_medium=api_v3_business_search&utm_source=Mwql40_Jp9W-rGojm838NQ,,12065752373,{},,,,,
PetSmart,"17845 Garden Way NE, unit 11, Woodinville, WA 98072",17845 Garden Way NE,unit 11,Woodinville,WA,98072,https://www.yelp.com/biz/petsmart-woodinville?adjust_creative=Mwql40_Jp9W-rGojm838NQ&utm_campaign=yelp_api_v3&utm_medium=api_v3_business_search&utm_source=Mwql40_Jp9W-rGojm838NQ,,14254242098,{},,,,,
Suite Paws,"110 S Rogers Ln, Raleigh, NC 27610",110 S Rogers Ln,,Raleigh,NC,27610,https://www.yelp.com/biz/suite-paws-pet-resort-and-spa-raleigh?adjust_creative=Mwql40_Jp9W-rGojm838NQ&utm_campaign=yelp_api_v3&utm_medium=api_v3_business_search&utm_source=Mwql40_Jp9W-rGojm838NQ,,19192311112,{},,,,,
Preston Animal Hospital,"9638 Chapel Hill Rd, Morrisville, NC 27560",9638 Chapel Hill Rd,,Morrisville,NC,27560,https://www.yelp.com/biz/preston-animal-hospital-morrisville?adjust_creative=Mwql40_Jp9W-rGojm838NQ&utm_campaign=yelp_api_v3&utm_medium=api_v3_business_search&utm_source=Mwql40_Jp9W-rGojm838NQ,,19196781410,{},,,,,
Preston Animal Hospital,"9638 Chapel Hill Rd, Morrisville, NC 27560",9638 Chapel Hill Rd,,Morrisville,NC,27560,https://www.yelp.com/biz/preston-animal-hospital-morrisville?adjust_creative=Mwql40_Jp9W-rGojm838NQ&utm_campaign=yelp_api_v3&utm_medium=api_v3_business_search&utm_source=Mwql40_Jp9W-rGojm838NQ,,19196781410,{},,,,,
Suite Paws,"110 S Rogers Ln, Raleigh, NC 27610",110 S Rogers Ln,,Raleigh,NC,27610,https://www.yelp.com/biz/suite-paws-pet-resort-and-spa-raleigh?adjust_creative=Mwql40_Jp9W-rGojm838NQ&utm_campaign=yelp_api_v3&utm_medium=api_v3_business_search&utm_source=Mwql40_Jp9W-rGojm838NQ,,19192311112,{},,,,,
